[
  {
    "OBJECT_NAME": "STARLINK-6372",
    "OBJECT_ID": "23099W",
    "EPOCH": "2025-11-11T00:53:49.429824",
    "MEAN_MOTION": 15.02533617,
    "ECCENTRICITY": 0.0001306,
    "INCLINATION": 43.0039,
    "RA_OF_ASC_NODE": 173.2271,
    "ARG_OF_PERICENTER": 263.7426,
    "MEAN_ANOMALY": 96.3268,
    "EPHEMERIS_TYPE": 0,
    "CLASSIFICATION_TYPE": "U",
    "NORAD_CAT_ID": 57348,
    "ELEMENT_SET_NO": 999,
    "REV_AT_EPOCH": 12827,
    "BSTAR": 4.1927e-05,
    "MEAN_MOTION_DOT": 3.63e-06,
    "MEAN_MOTION_DDOT": 0.0,
    "TLE_LINE1": "1 57348U 23099W   25315.03737766  .00000363  00000+0  41927-4 0  9993",
    "TLE_LINE2": "2 57348  43.0039 173.2271 0001306 263.7426  96.3268 15.02533617128278",
    "COMMENT": "Grouped by shell and plane from TLE"
  },
  {
    "OBJECT_NAME": "STARLINK-6376",
    "OBJECT_ID": "23099X",
    "EPOCH": "2025-11-11T00:57:01.046880",
    "MEAN_MOTION": 15.02531342,
    "ECCENTRICITY": 0.000121,
    "INCLINATION": 43.0042,
    "RA_OF_ASC_NODE": 173.2426,
    "ARG_OF_PERICENTER": 269.8477,
    "MEAN_ANOMALY": 90.2227,
    "EPHEMERIS_TYPE": 0,
    "CLASSIFICATION_TYPE": "U",
    "NORAD_CAT_ID": 57349,
    "ELEMENT_SET_NO": 999,
    "REV_AT_EPOCH": 12899,
    "BSTAR": 0.00011509,
    "MEAN_MOTION_DOT": 1.351e-05,
    "MEAN_MOTION_DDOT": 0.0,
    "TLE_LINE1": "1 57349U 23099X   25315.03959545  .00001351  00000+0  11509-3 0  9995",
    "TLE_LINE2": "2 57349  43.0042 173.2426 0001210 269.8477  90.2227 15.02531342128992",
    "COMMENT": "Grouped by shell and plane from TLE"
  },
  {
    "OBJECT_NAME": "STARLINK-6331",
    "OBJECT_ID": "23099Z",
    "EPOCH": "2025-11-11T00:52:13.175904",
    "MEAN_MOTION": 15.02534695,
    "ECCENTRICITY": 0.0001217,
    "INCLINATION": 43.0047,
    "RA_OF_ASC_NODE": 173.2171,
    "ARG_OF_PERICENTER": 264.728,
    "MEAN_ANOMALY": 95.3423,
    "EPHEMERIS_TYPE": 0,
    "CLASSIFICATION_TYPE": "U",
    "NORAD_CAT_ID": 57351,
    "ELEMENT_SET_NO": 999,
    "REV_AT_EPOCH": 12827,
    "BSTAR": 5.874200000000001e-05,
    "MEAN_MOTION_DOT": 5.9e-06,
    "MEAN_MOTION_DDOT": 0.0,
    "TLE_LINE1": "1 57351U 23099Z   25315.03626361  .00000590  00000+0  58742-4 0  9990",
    "TLE_LINE2": "2 57351  43.0047 173.2171 0001217 264.7280  95.3423 15.02534695128279",
    "COMMENT": "Grouped by shell and plane from TLE"
  },
  {
    "OBJECT_NAME": "STARLINK-6324",
    "OBJECT_ID": "23099AB",
    "EPOCH": "2025-11-11T00:49:01.766208",
    "MEAN_MOTION": 15.02537263,
    "ECCENTRICITY": 0.0001156,
    "INCLINATION": 43.0036,
    "RA_OF_ASC_NODE": 173.2006,
    "ARG_OF_PERICENTER": 244.5489,
    "MEAN_ANOMALY": 115.5234,
    "EPHEMERIS_TYPE": 0,
    "CLASSIFICATION_TYPE": "U",
    "NORAD_CAT_ID": 57353,
    "ELEMENT_SET_NO": 999,
    "REV_AT_EPOCH": 12827,
    "BSTAR": 3.7143e-05,
    "MEAN_MOTION_DOT": 2.98e-06,
    "MEAN_MOTION_DDOT": 0.0,
    "TLE_LINE1": "1 57353U 23099AB  25315.03404822  .00000298  00000+0  37143-4 0  9995",
    "TLE_LINE2": "2 57353  43.0036 173.2006 0001156 244.5489 115.5234 15.02537263128274",
    "COMMENT": "Grouped by shell and plane from TLE"
  },
  {
    "OBJECT_NAME": "STARLINK-30240",
    "OBJECT_ID": "23102A",
    "EPOCH": "2025-11-11T00:39:34.638336",
    "MEAN_MOTION": 15.02534896,
    "ECCENTRICITY": 0.0001428,
    "INCLINATION": 43.0038,
    "RA_OF_ASC_NODE": 173.8968,
    "ARG_OF_PERICENTER": 270.7585,
    "MEAN_ANOMALY": 89.3093,
    "EPHEMERIS_TYPE": 0,
    "CLASSIFICATION_TYPE": "U",
    "NORAD_CAT_ID": 57404,
    "ELEMENT_SET_NO": 999,
    "REV_AT_EPOCH": 12838,
    "BSTAR": 9.8525e-05,
    "MEAN_MOTION_DOT": 1.127e-05,
    "MEAN_MOTION_DDOT": 0.0,
    "TLE_LINE1": "1 57404U 23102A   25315.02748424  .00001127  00000+0  98525-4 0  9998",
    "TLE_LINE2": "2 57404  43.0038 173.8968 0001428 270.7585  89.3093 15.02534896128388",
    "COMMENT": "Grouped by shell and plane from TLE"
  },
  {
    "OBJECT_NAME": "STARLINK-30195",
    "OBJECT_ID": "23102C",
    "EPOCH": "2025-11-11T00:29:59.409600",
    "MEAN_MOTION": 15.02541437,
    "ECCENTRICITY": 8.94e-05,
    "INCLINATION": 43.0023,
    "RA_OF_ASC_NODE": 173.8449,
    "ARG_OF_PERICENTER": 271.1747,
    "MEAN_ANOMALY": 88.8992,
    "EPHEMERIS_TYPE": 0,
    "CLASSIFICATION_TYPE": "U",
    "NORAD_CAT_ID": 57406,
    "ELEMENT_SET_NO": 999,
    "REV_AT_EPOCH": 12838,
    "BSTAR": 7.4908e-05,
    "MEAN_MOTION_DOT": 8.09e-06,
    "MEAN_MOTION_DDOT": 0.0,
    "TLE_LINE1": "1 57406U 23102C   25315.02082650  .00000809  00000+0  74908-4 0  9997",
    "TLE_LINE2": "2 57406  43.0023 173.8449 0000894 271.1747  88.8992 15.02541437128380",
    "COMMENT": "Grouped by shell and plane from TLE"
  },
  {
    "OBJECT_NAME": "STARLINK-30205",
    "OBJECT_ID": "23102E",
    "EPOCH": "2025-11-11T00:15:37.140192",
    "MEAN_MOTION": 15.02536713,
    "ECCENTRICITY": 0.0001194,
    "INCLINATION": 43.0019,
    "RA_OF_ASC_NODE": 173.7734,
    "ARG_OF_PERICENTER": 266.6578,
    "MEAN_ANOMALY": 93.4128,
    "EPHEMERIS_TYPE": 0,
    "CLASSIFICATION_TYPE": "U",
    "NORAD_CAT_ID": 57408,
    "ELEMENT_SET_NO": 999,
    "REV_AT_EPOCH": 12838,
    "BSTAR": 0.00015396000000000002,
    "MEAN_MOTION_DOT": 1.877e-05,
    "MEAN_MOTION_DDOT": 0.0,
    "TLE_LINE1": "1 57408U 23102E   25315.01084653  .00001877  00000+0  15396-3 0  9994",
    "TLE_LINE2": "2 57408  43.0019 173.7734 0001194 266.6578  93.4128 15.02536713128382",
    "COMMENT": "Grouped by shell and plane from TLE"
  },
  {
    "OBJECT_NAME": "STARLINK-30222",
    "OBJECT_ID": "23102F",
    "EPOCH": "2025-11-11T00:01:11.536608",
    "MEAN_MOTION": 15.02559046,
    "ECCENTRICITY": 9.47e-05,
    "INCLINATION": 43.0008,
    "RA_OF_ASC_NODE": 173.6996,
    "ARG_OF_PERICENTER": 270.7178,
    "MEAN_ANOMALY": 89.3556,
    "EPHEMERIS_TYPE": 0,
    "CLASSIFICATION_TYPE": "U",
    "NORAD_CAT_ID": 57409,
    "ELEMENT_SET_NO": 999,
    "REV_AT_EPOCH": 12838,
    "BSTAR": 0.0001941,
    "MEAN_MOTION_DOT": 2.421e-05,
    "MEAN_MOTION_DDOT": 0.0,
    "TLE_LINE1": "1 57409U 23102F   25315.00082797  .00002421  00000+0  19410-3 0  9998",
    "TLE_LINE2": "2 57409  43.0008 173.6996 0000947 270.7178  89.3556 15.02559046128380",
    "COMMENT": "Grouped by shell and plane from TLE"
  },
  {
    "OBJECT_NAME": "STARLINK-30172",
    "OBJECT_ID": "23102G",
    "EPOCH": "2025-11-11T00:10:48.467424",
    "MEAN_MOTION": 15.0254013,
    "ECCENTRICITY": 0.0001414,
    "INCLINATION": 43.0045,
    "RA_OF_ASC_NODE": 173.7334,
    "ARG_OF_PERICENTER": 267.2091,
    "MEAN_ANOMALY": 92.859,
    "EPHEMERIS_TYPE": 0,
    "CLASSIFICATION_TYPE": "U",
    "NORAD_CAT_ID": 57410,
    "ELEMENT_SET_NO": 999,
    "REV_AT_EPOCH": 12838,
    "BSTAR": 1.2211e-06,
    "MEAN_MOTION_DOT": -1.87e-06,
    "MEAN_MOTION_DDOT": 0.0,
    "TLE_LINE1": "1 57410U 23102G   25315.00750541 -.00000187  00000+0  12211-5 0  9991",
    "TLE_LINE2": "2 57410  43.0045 173.7334 0001414 267.2091  92.8590 15.02540130128386",
    "COMMENT": "Grouped by shell and plane from TLE"
  },
  {
    "OBJECT_NAME": "STARLINK-30214",
    "OBJECT_ID": "23102H",
    "EPOCH": "2025-11-10T23:27:39.724704",
    "MEAN_MOTION": 15.02534035,
    "ECCENTRICITY": 0.000125,
    "INCLINATION": 43.0033,
    "RA_OF_ASC_NODE": 173.5274,
    "ARG_OF_PERICENTER": 262.8289,
    "MEAN_ANOMALY": 97.2411,
    "EPHEMERIS_TYPE": 0,
    "CLASSIFICATION_TYPE": "U",
    "NORAD_CAT_ID": 57411,
    "ELEMENT_SET_NO": 999,
    "REV_AT_EPOCH": 12833,
    "BSTAR": 7.022199999999999e-05,
    "MEAN_MOTION_DOT": 7.45e-06,
    "MEAN_MOTION_DDOT": 0.0,
    "TLE_LINE1": "1 57411U 23102H   25314.97754311  .00000745  00000+0  70222-4 0  9990",
    "TLE_LINE2": "2 57411  43.0033 173.5274 0001250 262.8289  97.2411 15.02534035128336",
    "COMMENT": "Grouped by shell and plane from TLE"
  },
  {
    "OBJECT_NAME": "STARLINK-30182",
    "OBJECT_ID": "23102J",
    "EPOCH": "2025-11-11T00:06:01.485504",
    "MEAN_MOTION": 15.02542108,
    "ECCENTRICITY": 9.27e-05,
    "INCLINATION": 43.0002,
    "RA_OF_ASC_NODE": 173.7195,
    "ARG_OF_PERICENTER": 270.6889,
    "MEAN_ANOMALY": 89.3847,
    "EPHEMERIS_TYPE": 0,
    "CLASSIFICATION_TYPE": "U",
    "NORAD_CAT_ID": 57412,
    "ELEMENT_SET_NO": 999,
    "REV_AT_EPOCH": 12838,
    "BSTAR": 3.6902e-05,
    "MEAN_MOTION_DOT": 2.95e-06,
    "MEAN_MOTION_DDOT": 0.0,
    "TLE_LINE1": "1 57412U 23102J   25315.00418386  .00000295  00000+0  36902-4 0  9992",
    "TLE_LINE2": "2 57412  43.0002 173.7195 0000927 270.6889  89.3847 15.02542108128380",
    "COMMENT": "Grouped by shell and plane from TLE"
  },
  {
    "OBJECT_NAME": "STARLINK-30193",
    "OBJECT_ID": "23102L",
    "EPOCH": "2025-11-10T23:51:35.817120",
    "MEAN_MOTION": 15.02553702,
    "ECCENTRICITY": 0.0003834,
    "INCLINATION": 43.0086,
    "RA_OF_ASC_NODE": 173.6324,
    "ARG_OF_PERICENTER": 269.3747,
    "MEAN_ANOMALY": 90.6656,
    "EPHEMERIS_TYPE": 0,
    "CLASSIFICATION_TYPE": "U",
    "NORAD_CAT_ID": 57414,
    "ELEMENT_SET_NO": 999,
    "REV_AT_EPOCH": 12838,
    "BSTAR": 0.00046425,
    "MEAN_MOTION_DOT": 6.076e-05,
    "MEAN_MOTION_DDOT": 0.0,
    "TLE_LINE1": "1 57414U 23102L   25314.99416455  .00006076  00000+0  46425-3 0  9999",
    "TLE_LINE2": "2 57414  43.0086 173.6324 0003834 269.3747  90.6656 15.02553702128380",
    "COMMENT": "Grouped by shell and plane from TLE"
  },
  {
    "OBJECT_NAME": "STARLINK-30208",
    "OBJECT_ID": "23102M",
    "EPOCH": "2025-11-10T23:46:50.945088",
    "MEAN_MOTION": 15.02538395,
    "ECCENTRICITY": 0.000136,
    "INCLINATION": 43.0018,
    "RA_OF_ASC_NODE": 173.6202,
    "ARG_OF_PERICENTER": 248.2992,
    "MEAN_ANOMALY": 111.7706,
    "EPHEMERIS_TYPE": 0,
    "CLASSIFICATION_TYPE": "U",
    "NORAD_CAT_ID": 57415,
    "ELEMENT_SET_NO": 999,
    "REV_AT_EPOCH": 12833,
    "BSTAR": 0.00036070000000000004,
    "MEAN_MOTION_DOT": 4.672e-05,
    "MEAN_MOTION_DDOT": 0.0,
    "TLE_LINE1": "1 57415U 23102M   25314.99086742  .00004672  00000+0  36070-3 0  9997",
    "TLE_LINE2": "2 57415  43.0018 173.6202 0001360 248.2992 111.7706 15.02538395128338",
    "COMMENT": "Grouped by shell and plane from TLE"
  }
]